#aV2010  6 12  0  0   .00000000      96 DD+AD WGS84 FIT  NGA
## 1587 518400.00000000   900.00000000 55359  .0000000000000
+   31     1  2  3  4  5  6  7  8  9 10 11 12 13 14 15 16 17
+         18 19 20 21 22 23 24 26 27 28 29 30 31 32  0  0  0
+          0  0  0  0  0  0  0  0  0  0  0  0  0  0  0  0  0
+          0  0  0  0  0  0  0  0  0  0  0  0  0  0  0  0  0
+          0  0  0  0  0  0  0  0  0  0  0  0  0  0  0  0  0
++         0  0  0  0  0  0  0  0  0  0  0  0  0  0  0  0  0
++         0  0  0  0  0  0  0  0  0  0  0  0  0  0  0  0  0
++         0  0  0  0  0  0  0  0  0  0  0  0  0  0  0  0  0
++         0  0  0  0  0  0  0  0  0  0  0  0  0  0  0  0  0
++         0  0  0  0  0  0  0  0  0  0  0  0  0  0  0  0  0
%c cc cc ccc ccc cccc cccc cccc cccc ccccc ccccc ccccc ccccc
%c cc cc ccc ccc cccc cccc cccc cccc ccccc ccccc ccccc ccccc
%f  0.0000000  0.000000000  0.00000000000  0.000000000000000
%f  0.0000000  0.000000000  0.00000000000  0.000000000000000
%i    0    0    0    0      0      0      0      0         0
%i    0    0    0    0      0      0      0      0         0
/*      NGA, ST. LOUIS,MO.                                  
/*   EPHEMERIS COMPUTED FROM  3 DAYS OF DATA                
/* CCCCCCCCCCCCCCCCCCCCCCCCCCCCCCCCCCCCCCCCCCCCCCCCCCCCCCCCC
/* CCCCCCCCCCCCCCCCCCCCCCCCCCCCCCCCCCCCCCCCCCCCCCCCCCCCCCCCC
*  2010  6 12 11 30   .00000000                                                 
P  1 -25314.562527  -7372.866031  -4013.994188   -129.889434                    
V  1   5283.381698  -1572.966546 -31211.947285      -.040397                    
P  2  20589.368228  -9390.096019 -13540.473325    263.947376                    
V  2  -8750.048661  15343.273272 -24434.772061       .032600                    
P  3 -15231.742227   4629.525023  20916.169076    567.322629                    
V  3 -12071.086714 -24739.115584  -2914.934102       .050669                    
P  4  16474.972631   4044.130684 -20680.785221    102.252474                    
V  4 -16226.144254  20177.107702  -8697.477800       .081078                    
P  5  24023.489008  -3421.252812  10882.312439     -6.890389                    
V  5  13161.894047   4864.751609 -27401.886609      -.020648                    
P  6 -16798.525997   -436.067854  20776.471909    610.375287                    
V  6  -9187.131562 -24385.783488  -7856.539415      -.126857                    
P  7   -563.552154  19476.508562  17957.779184     -1.168599                    
V  7 -16047.442994  16357.086925 -18397.086555      -.002703                    
P  8   9938.699636  10557.055396  22228.488204      5.731267                    
V  8 -19970.792734  19888.822420  -1029.143227       .001204                    
P  9  15251.760631 -21624.663066  -2535.414758     12.112842                    
V  9   3291.193925   -618.199528  32009.885449       .022231                    
P 10  26300.196937   4738.874076    989.878165    -44.443719                    
V 10    876.167410   2996.222231 -31336.695281      -.008905                    
P 11  -8913.736756  24545.207250  -3919.805918    -68.538005                    
V 11  -6872.140574   1876.270193  29722.461685      -.024791                    
P 12   9095.945817 -13003.975518 -21226.673461   -104.994074                    
V 12  26425.874456   5842.175480   7878.757785       .041295                    
P 13   4182.860433  25850.108440  -4469.762517    303.361704                    
V 13  -3185.768190  -4805.200465 -31806.472825      -.004964                    
P 14 -14659.175834 -17526.764571 -13518.527984     56.186734                    
V 14  -3531.954740 -17005.146926  25487.023871       .042055                    
P 15   9767.033223 -14437.454528  20022.091243   -257.581048                    
V 15  10072.206543  23403.928584  12085.916379       .065798                    
P 16 -25974.572628  -1251.753343   6138.851800    -80.709007                    
V 16  -7065.949530  -3662.343354 -30565.183480      -.037027                    
P 17  14838.603047  18690.266307 -11771.913251    156.226481                    
V 17   2547.910528  14994.552497  26569.520061       .020831                    
P 18 -10538.139912 -16178.106065  18669.155951     74.166861                    
V 18  22917.418975   3207.420742  15567.456211       .023927                    
P 19 -10332.837366  14593.102875  19570.311529    -41.697515                    
V 19  -7850.066066 -23663.450671  13830.031470      -.027795                    
P 20  -6710.390189  14720.871388 -21192.522828     54.760649                    
V 20 -26304.652267  -4594.337831   5220.004547      -.005523                    
P 21  -4059.545688 -17539.001638  19674.500026    -66.576220                    
V 21  17472.793206 -17330.971259 -12688.814620      -.026276                    
P 22 -21097.512181 -12439.645901  10558.475444    169.881723                    
V 22  13529.957319   -238.423882  27083.100623      -.008361                    
P 23  -1414.567121  23034.213475 -12880.868568    367.301298                    
V 23  -7567.163284 -14763.379420 -25934.298485      -.015005                    
P 24 -14889.589809  -6301.799254  21134.558324    295.544796                    
V 24  17775.618035 -19939.218831   6844.900109       .032128                    
P 26   7602.221961 -16990.359367  18203.030331    -65.032105                    
V 26   8006.535637  23061.491370  18062.244839      -.055545                    
P 27  17602.677604 -19622.820316   3042.894716    160.333346                    
V 27      6.023567   3832.975265  31948.998327       .034328                    
P 28  19236.983040  13468.048193  13159.363331    -13.752848                    
V 28 -15800.352000  -1772.398138  25576.426321       .010506                    
P 29  -4695.058370 -25700.629273  -4816.396089    126.828479                    
V 29   4516.540511   5091.841783 -30927.067904       .027928                    
P 30  -3694.220887 -15782.544083 -21448.792123    251.171901                    
V 30  26141.150963   3072.533089  -6841.119646       .033556                    
P 31 -17053.448704  -1047.604464 -20179.405167    -31.295220                    
V 31  16275.218957 -20276.324746 -12403.105479       .022401                    
P 32 -15160.528774   9704.919251 -19075.218960    -13.976835                    
V 32 -23750.199152  -8163.805630  14801.897869      -.085150                    
EOF
